[{"OBJECT_NAME":"STARLINK-31835","OBJECT_ID":"2024-091V","EPOCH":"2026-03-09T07:01:52.770432","MEAN_MOTION":15.30196188,"ECCENTRICITY":0.00012823,"INCLINATION":53.1617,"RA_OF_ASC_NODE":28.7235,"ARG_OF_PERICENTER":92.4836,"MEAN_ANOMALY":267.6311,"EPHEMERIS_TYPE":0,"CLASSIFICATION_TYPE":"U","NORAD_CAT_ID":59772,"ELEMENT_SET_NO":999,"REV_AT_EPOCH":10294,"BSTAR":7.6158103e-5,"MEAN_MOTION_DOT":1.897e-5,"MEAN_MOTION_DDOT":0},{"OBJECT_NAME":"CZ-6A DEB","OBJECT_ID":"2022-151DV","EPOCH":"2026-03-09T19:16:59.107296","MEAN_MOTION":15.22406517,"ECCENTRICITY":0.00445255,"INCLINATION":98.4509,"RA_OF_ASC_NODE":160.1888,"ARG_OF_PERICENTER":355.6495,"MEAN_ANOMALY":4.4345,"EPHEMERIS_TYPE":0,"CLASSIFICATION_TYPE":"U","NORAD_CAT_ID":54397,"ELEMENT_SET_NO":999,"REV_AT_EPOCH":17880,"BSTAR":0.0035436228,"MEAN_MOTION_DOT":0.00084931,"MEAN_MOTION_DDOT":0}]
